NORAD_CAT_ID,OBJECT_NAME,OBJECT_TYPE,EPOCH,MEAN_MOTION,ECCENTRICITY,INCLINATION,RA_OF_ASC_NODE,ARG_OF_PERICENTER,MEAN_ANOMALY,BSTAR,MEAN_MOTION_DOT,MEAN_MOTION_DDOT,TLE_LINE0,TLE_LINE1,TLE_LINE2,SEMIMAJOR_AXIS,PERIOD,APOGEE,PERIGEE,DECAYED
56770.0,STARLINK-6342,PAYLOAD,2023-06-13 22:00:00,15.76621423,0.0003267,70.0049,15.0147,273.4776,269.3835,-0.005937,-0.00860329,0.0,0 STARLINK-6342,1 56770U 23078D   23164.91667824 -.00860329  00000-0 -59370-2 0  9990,2 56770  70.0049  15.0147 0003267 273.4776 269.3835 15.76621423  1306,6718.158,91.335,342.218,337.828,0.0
56770.0,STARLINK-6342,PAYLOAD,2023-06-14 14:00:01,15.75371449,0.0003491,70.005,13.1237,267.6689,96.3914,-0.0069029,-0.00937945,0.0,0 STARLINK-6342,1 56770U 23078D   23165.58334491 -.00937945  00000-0 -69029-2 0  9996,2 56770  70.0050  13.1237 0003491 267.6689  96.3914 15.75371449  1309,6721.711,91.407,345.923,341.23,0.0
56770.0,STARLINK-6342,PAYLOAD,2023-06-14 20:00:01,15.74833313,0.0003445,70.005,12.4154,271.3865,69.8486,-0.0065738,-0.00878654,0.0,0 STARLINK-6342,1 56770U 23078D   23165.83334491 -.00878654  00000-0 -65738-2 0  9998,2 56770  70.0050  12.4154 0003445 271.3865  69.8486 15.74833313  2599,6723.243,91.438,347.424,342.791,0.0
56770.0,STARLINK-6342,PAYLOAD,2023-06-14 22:00:00,15.74669851,0.0003368,70.005,12.1795,274.8891,178.628,-0.0065344,-0.0086823,0.0,0 STARLINK-6342,1 56770U 23078D   23165.91667824 -.00868230  00000-0 -65344-2 0  9998,2 56770  70.0050  12.1795 0003368 274.8891 178.6280 15.74669851  1301,6723.708,91.448,347.837,343.308,0.0
56770.0,STARLINK-6342,PAYLOAD,2023-06-15 12:00:02,15.73543042,0.0003355,70.0046,10.5296,267.1817,251.0237,-0.0069766,-0.00881379,0.0,0 STARLINK-6342,1 56770U 23078D   23166.50002315 -.00881379  00000-0 -69766-2 0  9993,2 56770  70.0046  10.5296 0003355 267.1817 251.0237 15.73543042  2696,6726.917,91.513,351.039,346.525,0.0
56770.0,STARLINK-6342,PAYLOAD,2023-06-15 14:00:01,15.73417389,0.0003502,70.0048,10.2941,265.7207,4.3019,-0.0075311,-0.00939691,0.0,0 STARLINK-6342,1 56770U 23078D   23166.58334491 -.00939691  00000-0 -75311-2 0  9998,2 56770  70.0048  10.2941 0003502 265.7207   4.3019 15.73417389  1301,6727.275,91.521,351.496,346.785,0.0
56770.0,STARLINK-6342,PAYLOAD,2023-06-15 20:00:01,15.72876287,0.0003539,70.0043,9.5879,270.7282,334.7105,-0.0071537,-0.00878586,0.0,0 STARLINK-6342,1 56770U 23078D   23166.83334491 -.00878586  00000-0 -71537-2 0  9997,2 56770  70.0043   9.5879 0003539 270.7282 334.7105 15.72876287  1307,6728.818,91.552,353.065,348.302,0.0
56770.0,STARLINK-6342,PAYLOAD,2023-06-16 04:00:00,15.72263137,0.0003545,70.0038,8.6469,272.7061,59.2224,-0.0079346,-0.00941971,0.0,0 STARLINK-6342,1 56770U 23078D   23167.16667824 -.00941971  00000-0 -79346-2 0  9998,2 56770  70.0038   8.6469 0003545 272.7061  59.2224 15.72263137  2801,6730.568,91.588,354.819,350.047,0.0
56770.0,STARLINK-6342,PAYLOAD,2023-06-16 12:00:00,15.71599651,0.000362,70.0039,7.707,269.038,148.6063,-0.0077741,-0.00901706,0.0,0 STARLINK-6342,1 56770U 23078D   23167.50001157 -.00901706  00000-0 -77741-2 0  9996,2 56770  70.0039   7.7070 0003620 269.0380 148.6063 15.71599651  2858,6732.462,91.626,356.764,351.89,0.0
56770.0,STARLINK-6342,PAYLOAD,2023-06-16 14:00:01,15.71456303,0.0003511,70.0042,7.4721,267.674,261.2739,-0.0081392,-0.00934516,0.0,0 STARLINK-6342,1 56770U 23078D   23167.58334491 -.00934516  00000-0 -81392-2 0  9996,2 56770  70.0042   7.4721 0003511 267.6740 261.2739 15.71456303  1302,6732.871,91.635,357.1,352.372,0.0
56770.0,STARLINK-6342,PAYLOAD,2023-06-16 22:00:00,15.70732411,0.0003583,70.004,6.5331,273.3123,340.4035,-0.0072622,-0.00820113,0.0,0 STARLINK-6342,1 56770U 23078D   23167.91667824 -.00820113  00000-0 -72622-2 0  9995,2 56770  70.0040   6.5331 0003583 273.3123 340.4035 15.70732411  1300,6734.94,91.677,359.218,354.391,0.0
56770.0,STARLINK-6342,PAYLOAD,2023-06-17 04:00:00,15.70133871,0.000361,70.0031,5.8297,274.7415,312.0266,-0.0029339,-0.00342011,0.0,0 STARLINK-6342,1 56770U 23078D   23168.16667824 -.00342011  00000-0 -29339-2 0  9996,2 56770  70.0031   5.8297 0003610 274.7415 312.0266 15.70133871  2951,6736.651,91.712,360.948,356.084,0.0
56770.0,STARLINK-6342,PAYLOAD,2023-06-17 09:09:12,15.70288618,0.0003625,70.0039,5.2264,268.555,91.523,-0.0034647,-0.0040354,0.0,0 STARLINK-6342,1 56770U 23078D   23168.38139779 -.00403540  00000-0 -34647-2 0  9996,2 56770  70.0039   5.2264 0003625 268.5550  91.5230 15.70288618  2998,6736.208,91.703,360.515,355.632,0.0
56770.0,STARLINK-6342,PAYLOAD,2023-06-17 12:12:42,15.70143206,0.0003491,70.0039,4.8682,272.8526,87.227,-0.0027959,-0.00326636,0.0,0 STARLINK-6342,1 56770U 23078D   23168.50882952 -.00326636  00000-0 -27959-2 0  9996,2 56770  70.0039   4.8682 0003491 272.8526  87.2270 15.70143206  2752,6736.624,91.711,360.841,356.138,0.0
56770.0,STARLINK-6342,PAYLOAD,2023-06-17 16:47:58,15.70041841,0.0003543,70.0038,4.3305,274.5138,85.5653,-0.0013684,-0.0016241,0.0,0 STARLINK-6342,1 56770U 23078D   23168.69997835 -.00162410  00000-0 -13684-2 0  9991,2 56770  70.0038   4.3305 0003543 274.5138  85.5653 15.70041841  3045,6736.914,91.717,361.166,356.392,0.0
56770.0,STARLINK-6342,PAYLOAD,2023-06-17 21:23:13,15.70035093,0.0003175,70.0036,3.793,258.5499,101.534,0.0010542,0.00129102,0.0,0 STARLINK-6342,1 56770U 23078D   23168.89112933  .00129102  00000-0  10542-2 0  9990,2 56770  70.0036   3.7930 0003175 258.5499 101.5340 15.70035093  2811,6736.934,91.718,360.938,356.66,0.0
56770.0,STARLINK-6342,PAYLOAD,2023-06-18 12:00:00,15.69931919,0.0003686,70.0001,2.081,268.7758,291.4144,-3.8561e-05,-4.849e-05,0.0,0 STARLINK-6342,1 56770U 23078D   23169.50001157 -.00004849  00000-0 -38561-4 0  9999,2 56770  70.0001   2.0810 0003686 268.7758 291.4144 15.69931919  3160,6737.229,91.724,361.577,356.61,0.0
56770.0,STARLINK-6342,PAYLOAD,2023-06-18 12:40:45,15.70020698,0.0002698,70.0023,2.0016,235.292,124.8022,0.0011591,0.00142098,0.0,0 STARLINK-6342,1 56770U 23078D   23169.52830008  .00142098  00000-0  11591-2 0  9995,2 56770  70.0023   2.0016 0002698 235.2920 124.8022 15.70020698  2915,6736.975,91.719,360.657,357.022,0.0
56770.0,STARLINK-6342,PAYLOAD,2023-06-18 22:00:00,15.69905862,0.0003718,69.9999,0.9091,276.5082,117.8755,0.00033849,0.00040657,0.0,0 STARLINK-6342,1 56770U 23078D   23169.91667824  .00040657  00000-0  33849-3 0  9991,2 56770  69.9999   0.9091 0003718 276.5082 117.8755 15.69905862  1305,6737.303,91.725,361.673,356.663,0.0
56770.0,STARLINK-6342,PAYLOAD,2023-06-19 08:33:32,15.69948966,0.0003743,70.0002,359.672,274.6334,85.4434,0.0006332,0.00076707,0.0,0 STARLINK-6342,1 56770U 23078D   23170.35662411  .00076707  00000-0  63320-3 0  9990,2 56770  70.0002 359.6720 0003743 274.6334  85.4434 15.69948966  3301,6737.18,91.723,361.567,356.523,0.0
56770.0,STARLINK-6342,PAYLOAD,2023-06-19 14:00:01,15.69970131,0.0003776,70.0002,359.0349,270.1241,290.9089,-0.00057146,-0.00068506,0.0,0 STARLINK-6342,1 56770U 23078D   23170.58334491 -.00068506  00000-0 -57146-3 0  9998,2 56770  70.0002 359.0349 0003776 270.1241 290.9089 15.69970131  1302,6737.119,91.721,361.528,356.441,0.0
56770.0,STARLINK-6342,PAYLOAD,2023-06-19 20:00:01,15.69885134,0.0003883,69.9999,358.332,276.7048,256.8649,0.0004157,0.00049994,0.0,0 STARLINK-6342,1 56770U 23078D   23170.83334491  .00049994  00000-0  41570-3 0  9998,2 56770  69.9999 358.3320 0003883 276.7048 256.8649 15.69885134  3371,6737.363,91.726,361.844,356.612,0.0
56770.0,STARLINK-6342,PAYLOAD,2023-06-19 22:00:00,15.69882617,0.0003883,69.9999,358.0976,277.7928,6.605,0.00059512,0.00071844,0.0,0 STARLINK-6342,1 56770U 23078D   23170.91667824  .00071844  00000-0  59512-3 0  9990,2 56770  69.9999 358.0976 0003883 277.7928   6.6050 15.69882617  1304,6737.37,91.727,361.851,356.619,0.0
56770.0,STARLINK-6342,PAYLOAD,2023-06-20 09:01:34,15.69917003,0.0004499,69.9999,356.8053,286.5242,73.5459,0.00038671,0.00046541,0.0,0 STARLINK-6342,1 56770U 23078D   23171.37609484  .00046541  00000-0  38671-3 0  9998,2 56770  69.9999 356.8053 0004499 286.5242  73.5459 15.69917003  3460,6737.271,91.725,362.168,356.105,0.0
56770.0,STARLINK-6342,PAYLOAD,2023-06-20 12:05:04,15.6992505,0.0003991,69.9997,356.447,273.8417,86.2322,0.00032211,0.00038703,0.0,0 STARLINK-6342,1 56770U 23078D   23171.50352724  .00038703  00000-0  32211-3 0  9990,2 56770  69.9997 356.4470 0003991 273.8417  86.2322 15.69925050  3221,6737.248,91.724,361.802,356.425,0.0
56770.0,STARLINK-6342,PAYLOAD,2023-06-20 21:15:35,15.69955078,0.0003985,70.0,355.3726,275.6736,84.4006,0.00032324,0.00038889,0.0,0 STARLINK-6342,1 56770U 23078D   23171.88582375  .00038889  00000-0  32324-3 0  9998,2 56770  70.0000 355.3726 0003985 275.6736  84.4006 15.69955078  3286,6737.163,91.722,361.712,356.343,0.0
56770.0,STARLINK-6342,PAYLOAD,2023-06-21 01:50:50,15.69948991,0.0004031,70.0001,354.8347,276.3571,83.7166,0.00040399,0.00048702,0.0,0 STARLINK-6342,1 56770U 23078D   23172.07697349  .00048702  00000-0  40399-3 0  9994,2 56770  70.0001 354.8347 0004031 276.3571  83.7166 15.69948991  3575,6737.18,91.723,361.761,356.329,0.0
56770.0,STARLINK-6342,PAYLOAD,2023-06-21 12:33:06,15.69905743,0.0004094,70.0001,353.5807,276.2938,83.7792,0.00028289,0.00033919,0.0,0 STARLINK-6342,1 56770U 23078D   23172.52299565  .00033919  00000-0  28289-3 0  9990,2 56770  70.0001 353.5807 0004094 276.2938  83.7792 15.69905743  3648,6737.304,91.725,361.927,356.41,0.0
56770.0,STARLINK-6342,PAYLOAD,2023-06-21 14:04:52,15.69911459,0.0004283,70.0,353.4015,282.3318,77.7398,0.00035785,0.00043022,0.0,0 STARLINK-6342,1 56770U 23078D   23172.58671349  .00043022  00000-0  35785-3 0  9995,2 56770  70.0000 353.4015 0004283 282.3318  77.7398 15.69911459  3395,6737.287,91.725,362.038,356.267,0.0
56770.0,STARLINK-6342,PAYLOAD,2023-06-21 20:11:52,15.69923633,0.0003986,70.0003,352.685,271.4675,88.6064,0.0004576,0.00055178,0.0,0 STARLINK-6342,1 56770U 23078D   23172.84158075  .00055178  00000-0  45760-3 0  9999,2 56770  70.0003 352.6850 0003986 271.4675  88.6064 15.69923633  3433,6737.252,91.724,361.803,356.432,0.0
